OBJECT_NAME,OBJECT_ID,EPOCH,MEAN_MOTION,ECCENTRICITY,INCLINATION,RA_OF_ASC_NODE,ARG_OF_PERICENTER,MEAN_ANOMALY,EPHEMERIS_TYPE,CLASSIFICATION_TYPE,NORAD_CAT_ID,ELEMENT_SET_NO,REV_AT_EPOCH,BSTAR,MEAN_MOTION_DOT,MEAN_MOTION_DDOT
NOAA 18,2005-018A,2026-05-16T15:03:20.094624,14.13723043,.00133282,98.8111,216.7612,238.2141,121.7734,0,U,28654,999,8185,.31820119E-4,.16E-6,0
SJ-7,2005-024A,2026-05-16T12:26:05.989632,15.21025977,.00171978,97.7307,165.7797,138.3733,221.8814,0,U,28737,999,14321,.27420408E-3,.6035E-4,0
CUBESAT XI-V,2005-043F,2026-05-15T09:06:38.600352,14.72539240,.00130267,98.2948,290.3214,313.0591,46.9524,0,U,28895,999,9692,.1248788E-3,.741E-5,0
CLOUDSAT,2006-016A,2026-05-16T13:50:27.262752,14.86324947,.00065806,98.3950,172.1131,78.7288,281.4666,0,U,29107,999,6981,.77069135E-4,.618E-5,0
CALIPSO,2006-016B,2026-05-16T11:52:24.336768,14.69284788,.00016138,98.4484,151.0785,76.6405,283.4979,0,U,29108,999,6840,.11361536E-3,.618E-5,0
HINODE (SOLAR-B),2006-041A,2026-05-16T00:38:19.742496,14.68573096,.00182548,98.0562,152.6527,34.4741,325.7644,0,U,29479,999,5015,.78256427E-4,.406E-5,0
METOP-A,2006-044A,2026-05-16T12:33:53.590752,14.75812881,.01746647,98.3302,242.2414,169.9508,201.3187,0,U,29499,999,2078,.19246653E-3,.1626E-4,0
SHIJIAN-6 02B (SJ-6 02B),2006-046B,2026-05-16T13:18:43.888896,15.01281825,.00119467,97.7160,165.8092,161.1611,199.0058,0,U,29506,999,6599,.99927902E-4,.1226E-4,0
DMSP 5D-3 F17 (USA 191),2006-050A,2026-05-16T13:28:47.091360,14.14987275,.00108083,98.7386,143.7786,140.8988,219.2969,0,U,29522,999,795,.37283711E-4,.29E-6,0
LAPAN-TUBSAT,2007-001A,2026-05-16T14:31:22.023264,14.85913637,.00108646,98.1340,135.1182,292.0779,67.9282,0,U,29709,999,4646,-.4368876E-5,-.96E-6,0
HAIYANG-1B,2007-010A,2026-05-16T09:37:23.585952,14.31018652,.00123693,98.3487,119.4818,298.6984,61.2956,0,U,31113,999,99608,.32582362E-4,.44E-6,0
BEIDOU-2 M1,2007-011A,2026-05-16T05:46:58.072224,1.77349276,.00016037,50.9403,220.3406,348.9483,11.1110,0,U,31115,999,7558,0,.2E-6,0
CAPE-1,2007-012P,2026-05-16T09:46:06.654144,14.64792283,.00837434,98.4448,110.0573,169.4904,190.8074,0,U,31130,999,1370,.11880629E-3,.611E-5,0
CBERS 2B,2007-042A,2026-05-16T11:02:20.422176,14.41457378,.0032247,98.3912,81.6665,71.0003,39.6090,0,U,32062,999,98011,.55220329E-4,.137E-5,0
COSMO-SKYMED 2,2007-059A,2026-05-16T11:57:59.794272,14.82157983,.00014503,97.8883,320.5567,89.6965,270.4414,0,U,32376,999,99730,.37226426E-4,.244E-5,0
CARTOSAT-2A,2008-021A,2026-05-16T12:34:34.376736,14.79191752,.00109146,97.7662,186.3105,208.1015,151.9609,0,U,32783,999,97412,.87040516E-4,.596E-5,0
CUTE-1.7+APD II (CO-65),2008-021C,2026-05-16T13:23:59.402688,15.09129276,.00102749,97.8264,117.3307,129.6427,230.5709,0,U,32785,999,98042,.25424574E-3,.3971E-4,0
SEEDS II (CO-66),2008-021J,2026-05-16T11:03:13.498560,15.31599019,.00048784,97.7517,132.8741,77.3514,282.8272,0,U,32791,999,98243,.56122161E-3,.17067E-3,0
YUBILEINY (RS30),2008-025A,2026-05-16T15:09:25.240032,12.43178284,.00202228,82.5076,15.0704,22.7703,337.4269,0,U,32953,999,81577,.44159499E-3,.71E-6,0
FENGYUN 3A,2008-026A,2026-05-16T12:59:09.499488,14.19564016,.00079733,98.6875,77.9691,213.3205,146.7471,0,U,32958,999,93091,.33576384E-4,.27E-6,0
HUANJING 1A (HJ-1A),2008-041A,2026-05-16T14:37:28.615008,14.83912747,.00173586,97.6669,123.6730,240.5497,119.3986,0,U,33320,999,95372,.11963922E-3,.945E-5,0
HUANJING 1B (HJ-1B),2008-041B,2026-05-16T15:09:50.702112,14.83257918,.00348598,97.6506,126.9605,288.3295,71.4128,0,U,33321,999,95373,.20489111E-4,.116E-5,0
SHIJIAN-6 03A (SJ-6 03A),2008-053A,2026-05-16T12:27:41.886720,15.16823504,.00129838,97.8435,168.7440,117.8105,242.4445,0,U,33408,999,95816,.16116247E-3,.3101E-4,0
SHIJIAN-6 03B (SJ-6 03B),2008-053B,2026-05-16T15:16:01.250112,15.04213171,.0020538,97.8597,156.0059,142.3661,217.9006,0,U,33409,999,95800,.48348364E-4,.609E-5,0
CHUANGXIN 1-02 (CX-1-02),2008-056B,2026-05-16T14:30:19.863648,14.30147052,.00132153,98.6157,163.1829,230.1509,129.8511,0,U,33434,999,91410,.12885783E-3,.29E-5,0
STARS (KUKAI),2009-002G,2026-05-16T13:46:42.264192,14.95513243,.00069908,98.1535,82.6022,276.1793,83.8631,0,U,33498,999,93375,.22361421E-3,.2415E-4,0
KKS-1 (KISEKI),2009-002H,2026-05-16T14:44:10.216032,14.83035190,.00088578,98.1195,58.5577,40.8532,319.3343,0,U,33499,999,93151,.10651486E-3,.811E-5,0
NOAA 19,2009-005A,2026-05-16T14:53:44.852928,14.13468824,.00147775,98.9527,207.4711,118.0103,242.2566,0,U,33591,999,89002,.37087119E-4,.25E-6,0
UK-DMC 2,2009-041C,2026-05-16T15:14:11.985216,14.75974674,.00016547,97.8783,272.3818,79.7580,280.3816,0,U,35683,999,90191,.73677565E-4,.457E-5,0
METEOR-M 1,2009-049A,2026-05-16T10:30:13.708224,14.23149140,.0003143,98.7370,99.1440,56.4050,303.7428,0,U,35865,999,86473,.2918551E-4,.22E-6,0
OCEANSAT-2,2009-051A,2026-05-16T14:27:56.845728,13.99649498,.00149773,98.2300,126.6096,330.9082,29.1249,0,U,35931,999,87491,.15024943E-3,.182E-5,0
SWISSCUBE,2009-051B,2026-05-16T11:46:34.947264,14.62415358,.00059532,98.4056,43.8254,322.1102,37.9679,0,U,35932,999,88452,.13605195E-3,.639E-5,0
BEESAT-1,2009-051C,2026-05-16T13:15:09.560736,14.61664420,.00047826,98.3985,43.5894,340.8636,19.2384,0,U,35933,999,88456,.11593666E-3,.528E-5,0
ITUPSAT1,2009-051E,2026-05-16T12:22:14.111904,14.60388968,.00071943,98.4070,42.7774,347.9337,12.1689,0,U,35935,999,88411,.11041985E-3,.486E-5,0
DMSP 5D-3 F18 (USA 210),2009-057A,2026-05-16T14:26:14.906688,14.14878044,.00108099,98.9028,117.4425,347.2781,12.8118,0,U,35951,999,85512,.12192167E-3,.191E-5,0
PROBA-2,2009-059B,2026-05-16T11:11:05.059392,14.54848026,.00137414,98.2448,320.2594,24.2049,335.9790,0,U,36037,999,87691,.3462443E-4,.103E-5,0
YAOGAN-7,2009-069A,2026-05-16T14:35:40.232256,14.77975559,.00254963,98.0110,22.6646,138.5875,221.7274,0,U,36110,999,88496,.48060848E-4,.295E-5,0
XIWANG-1 (HOPE-1),2009-072B,2026-05-16T15:04:40.872576,13.16437117,.00070298,100.4005,90.9674,310.1617,49.8880,0,U,36122,999,78885,-.37849597E-3,-.189E-5,0
RADUGA-1M 2,2010-002A,2026-05-16T14:52:08.218848,0.98964381,.00066722,3.5395,79.2311,263.6477,211.5448,0,U,36358,999,4971,0,-.42E-6,0
COSMOS 2463,2010-017A,2026-05-16T11:02:20.270976,13.71663468,.00353974,82.9591,273.0179,216.2913,209.6893,0,U,36519,999,80358,.1494365E-4,.28E-6,0
CARTOSAT-2B,2010-035A,2026-05-16T14:26:58.833312,14.78618192,.00101278,97.9981,187.3493,296.7835,63.2340,0,U,36795,999,85518,.43971656E-4,.269E-5,0
AISSAT 1,2010-035C,2026-05-16T14:24:22.051872,14.97220455,.00097292,98.0956,34.7292,151.4564,208.7191,0,U,36797,999,85949,.17647107E-3,.198E-4,0
TISAT 1,2010-035E,2026-05-16T11:37:58.674432,15.30426749,.0003225,98.0704,80.2582,46.7440,313.4068,0,U,36799,999,86285,.5734509E-3,.16809E-3,0
YAOGAN-10,2010-038A,2026-05-16T13:41:39.232608,14.85243472,.00014867,97.8996,160.2264,92.7226,59.5473,0,U,36834,999,85251,.1280328E-3,.1044E-4,0
SHIJIAN-6 04B (SJ-6 04B),2010-051B,2026-05-16T14:07:21.018144,14.99258341,.00122536,97.8716,141.6780,54.0237,306.2120,0,U,37180,999,85094,-.12347268E-4,-.212E-5,0
FENGYUN 3B,2010-059A,2026-05-16T15:21:13.601664,14.14835017,.00209946,98.9646,182.5164,276.6885,236.0680,0,U,37214,999,80296,.27044024E-3,.477E-5,0
COSMO-SKYMED 4,2010-060A,2026-05-16T15:30:40.454784,14.82154437,.00013452,97.8880,320.7035,83.8764,276.2602,0,U,37216,999,83989,-.15183053E-4,-.173E-5,0
O/OREOS (USA 219),2010-062C,2026-05-16T10:49:20.106624,14.93601236,.0012865,71.9682,152.2187,132.5026,227.7234,0,U,37224,999,11190,.12367677E-3,.1244E-4,0
ELEKTRO-L 1 (GOMS 2),2011-001A,2026-05-16T08:36:39.377376,1.00156074,.00039419,9.6153,54.8239,24.9420,185.2497,0,U,37344,999,5616,0,-.115E-5,0
RESOURCESAT-2,2011-015A,2026-05-16T13:22:56.308224,14.21604891,.00109899,98.7653,204.2153,354.8850,5.2214,0,U,37387,999,78168,.44653814E-4,.54E-6,0
YOUTHSAT,2011-015B,2026-05-16T09:08:49.777152,14.25615937,.0015752,98.3669,111.8734,76.4443,79.8000,0,U,37388,999,78310,.64011215E-4,.111E-5,0
APRIZESAT 6,2011-044F,2026-05-16T13:58:18.816672,14.76868812,.0042918,98.2383,46.4346,185.3050,273.8008,0,U,37793,999,79248,.61169965E-4,.38E-5,0
JUGNU,2011-058B,2026-05-16T09:52:28.353792,14.13766813,.0018794,19.9591,141.4723,85.5615,62.7635,0,U,37839,999,75452,.58427345E-4,.379E-5,0
SRMSAT,2011-058D,2026-05-16T14:47:04.919424,14.11568339,.00116173,19.9717,250.5678,216.6039,173.2826,0,U,37841,999,75335,.53796036E-4,.364E-5,0
SUOMI NPP,2011-061A,2026-05-16T13:13:47.868672,14.19510227,.00027859,98.7943,77.6461,68.2136,291.9337,0,U,37849,999,75395,.35733977E-4,.31E-6,0
YAOGAN-12,2011-066B,2026-05-16T12:52:12.088128,15.26171311,.000927,97.1170,176.5982,349.5609,10.5436,0,U,37875,999,80721,.29260127E-3,.7503E-4,0
BEIDOU-2 M4,2012-018B,2026-05-16T10:34:11.164800,1.86229529,.00109754,55.6865,305.1616,280.9040,78.9509,0,U,38251,999,9535,0,-.53E-6,0
ARIRANG-3 (KOMPSAT-3),2012-025B,2026-05-16T14:56:43.629216,14.62176269,.00046805,98.1160,94.6322,200.0452,160.0566,0,U,38338,999,74673,.56660322E-4,.239E-5,0
HORYU-2,2012-025D,2026-05-16T11:53:19.703616,14.90861241,.00068158,98.2134,268.1485,287.5046,72.5425,0,U,38340,999,74400,.19629139E-3,.1873E-4,0
CSSWE,2012-048D,2026-05-16T14:41:40.920288,15.42907711,.0052582,64.6620,200.3203,183.8009,176.2736,0,U,38761,999,11152,.53234246E-3,.24568E-3,0
CP5,2012-048F,2026-05-16T10:37:12.412992,15.26934971,.00849653,64.6458,257.4378,186.3384,173.6679,0,U,38763,999,11191,.51760825E-3,.15093E-3,0
METOP-B,2012-049A,2026-05-16T14:00:41.682528,14.21423345,.00034936,98.6525,188.7100,85.4692,274.6885,0,U,38771,999,70877,.49096462E-4,.64E-6,0
SJ-9A,2012-056A,2026-05-16T12:06:33.507072,14.85401421,.00257133,97.6692,109.6083,5.4038,354.7450,0,U,38860,999,69488,.96285577E-4,.781E-5,0
COSMOS 2484 (RODNIK-S 6),2013-001C,2026-05-16T14:13:17.297184,12.42937813,.00275573,82.5027,241.5328,103.1633,257.2524,0,U,39059,999,60463,-.43118447E-3,-.5E-6,0
SARAL,2013-009A,2026-05-16T14:48:30.207456,14.32847737,.00024655,98.5559,323.5841,45.8044,314.3342,0,U,39086,999,69108,.33225817E-4,.47E-6,0
